IRIDIUM 166             
1 43570U 18061B   24358.79831206  .00000336  00000+0  11302-3 0  9994
2 43570  86.3965 282.5433 0001891  87.9128 272.2285 14.34216701335940
IRIDIUM 158             
1 43571U 18061C   24359.25498127 -.00000004  00000+0 -83612-5 0  9997
2 43571  86.3964 282.3620 0001869  77.4917 282.6488 14.34217479335988
IRIDIUM 165             
1 43572U 18061D   24359.28035163  .00000092  00000+0  25848-4 0  9999
2 43572  86.3967 282.3874 0002250  86.6701 273.4752 14.34218494336005
IRIDIUM 155             
1 43573U 18061E   24358.33529922  .00000550  00000+0  18942-3 0  9991
2 43573  86.3961 282.6786 0001807  81.2081 278.9319 14.34211707335833
IRIDIUM 154             
1 43574U 18061F   24358.31627090  .00000719  00000+0  24965-3 0  9994
2 43574  86.3966 282.7930 0002166  83.5972 276.5470 14.34217665335880
IRIDIUM 163             
1 43575U 18061G   24358.78562605  .00000403  00000+0  13686-3 0  9994
2 43575  86.3961 282.5294 0002035  77.8997 282.2427 14.34217434335920
IRIDIUM 156             
1 43576U 18061H   24358.89979860  .00000685  00000+0  23744-3 0  9990
2 43576  86.3963 282.4883 0001819  86.9119 273.2285 14.34222138335921
IRIDIUM 164             
1 43577U 18061J   24359.50868353  .00000405  00000+0  13762-3 0  9993
2 43577  86.3965 282.2651 0002259  90.8260 269.3194 14.34218532336069
